CCSDS_OEM_VERS = 2.0  
CREATION_DATE  = 2026-03-24T10:47:18
ORIGINATOR     = ESOC/OPS-GFA                            
 
 



META_START
OBJECT_NAME          = LISA                                    
OBJECT_ID            = -1000                                   
CENTER_NAME          = SUN                     
REF_FRAME            = EME2000 
TIME_SYSTEM          = TCB
START_TIME           = 2036-12-23T00:00:30.346418            
STOP_TIME            = 2047-09-07T16:38:34.723816            
INTERPOLATION        = HERMITE                                 
INTERPOLATION_DEGREE = 7                                       
META_STOP

2039-02-28T11:29:00.599785    -1.12139847338581815e+08    9.11853698669835776e+07    4.04897098073894978e+07   -1.98070485179611353e+01   -2.03564481870474765e+01   -8.63175277158866550e+00    4.40077670681164249e-06   -3.57866781650064250e-06   -1.58905996432098779e-06
2039-03-01T07:38:28.012397    -1.13565557515658632e+08    8.96987839212454110e+07    3.98591636799888313e+07   -1.94856836792398624e+01   -2.06140113441552408e+01   -8.74616235439772183e+00    4.45607112739081208e-06   -3.51980424166074688e-06   -1.56408204775328776e-06
2039-03-02T03:47:55.425009    -1.14967802354779139e+08    8.81936629124541581e+07    3.92203811974053010e+07   -1.91603398626601269e+01   -2.08672773582135989e+01   -8.85874798236752348e+00    4.51043790969795623e-06   -3.46023810975449162e-06   -1.53879158207785159e-06
2039-03-02T23:57:22.837622    -1.16346295563107863e+08    8.66703205136264265e+07    3.85734955382885486e+07   -1.88310847603531819e+01   -2.11161956944752198e+01   -8.96948716518468636e+00    4.56386672903335653e-06   -3.39998178816331776e-06   -1.51319382848631277e-06
2039-03-03T20:06:50.250234    -1.17700755756397545e+08    8.51290740208201706e+07    3.79186414942151308e+07   -1.84979868065555522e+01   -2.13607167199492913e+01   -9.07835779624986650e+00    4.61634745577247292e-06   -3.33904776073363785e-06   -1.48729410040481835e-06
2039-03-04T16:16:17.662846    -1.19030906518406004e+08    8.35702442892945707e+07    3.72559554425842017e+07   -1.81611151638258370e+01   -2.16007917114442023e+01   -9.18533815628523342e+00    4.66787014437789097e-06   -3.27744861600274091e-06   -1.46109775822415858e-06
2039-03-05T12:25:45.075458    -1.20336476477023199e+08    8.19941556754893363e+07    3.65855753221816272e+07   -1.78205397102092427e+01   -2.18363728626498599e+01   -9.29040691651240103e+00    4.71842501828397914e-06   -3.21519703251591461e-06   -1.43461020273715239e-06
2039-03-06T08:35:12.488070    -1.21617199402251363e+08    8.04011359867142439e+07    3.59076406122766212e+07   -1.74763310276534973e+01   -2.20674132900440867e+01   -9.39354314130508428e+00    4.76800245054068158e-06   -3.15230576112266638e-06   -1.40783686723327425e-06
2039-03-07T04:44:39.900682    -1.22872814331179351e+08    7.87915164404377490e+07    3.52222923161155581e+07   -1.71285603919800522e+01   -2.22938670374079777e+01   -9.49472629022080739e+00    4.81659294024967904e-06   -3.08878760428353528e-06   -1.38078320826471436e-06
2039-03-08T01:00:15.661776    -1.24109244997573122e+08    7.71573377215283811e+07    3.45261389051316381e+07   -1.67755079862968799e+01   -2.25168031599012828e+01   -9.59443474292495857e+00    4.86442668835376056e-06   -3.02432876670477371e-06   -1.35331548531642226e-06
2039-03-08T21:15:51.422869    -1.25319799202337861e+08    7.55070709823487550e+07    3.38227864863608778e+07   -1.64190037606747943e+01   -2.27350157209936654e+01   -9.69212986786508957e+00    4.91124516515561681e-06   -2.95926321774000193e-06   -1.32557591565677838e-06
2039-03-09T17:31:27.183963    -1.26504227924681455e+08    7.38410623421899676e+07    3.31123826220633425e+07   -1.60591220869029385e+01   -2.29484609602246046e+01   -9.78779204710664708e+00    4.95703955783056870e-06   -2.89360441872150760e-06   -1.29757024670264934e-06
2039-03-10T13:47:02.945057    -1.27662287528913513e+08    7.21596610686793029e+07    3.23950762862135842e+07   -1.56959379742729990e+01   -2.31570961015426953e+01   -9.88140208307313728e+00    5.00180120247250551e-06   -2.82736590382402786e-06   -1.26930425859640803e-06
2039-03-11T10:02:38.706150    -1.28793739864594653e+08    7.04632195131251663e+07    3.16710178374256976e+07   -1.53295270578094591e+01   -2.33608793589388668e+01   -9.97294120108121085e+00    5.04552160815200075e-06   -2.76056128842366476e-06   -1.24078376807731847e-06
2039-03-12T06:18:14.467244    -1.29898352339969233e+08    6.87520930418507159e+07    3.09403589898977764e+07   -1.49599655849151265e+01   -2.35597699426078897e+01   -1.00623910521211766e+01    5.08819247639936679e-06   -2.69320427529121316e-06   -1.21201463136941418e-06
2039-03-13T02:33:50.228337    -1.30975897974309623e+08    6.70266399642768204e+07    3.02032527827568166e+07   -1.45873304007622444e+01   -2.37537280654826759e+01   -1.01497337158123138e+01    5.12980571612001819e-06   -2.62530865862209694e-06   -1.18300274608709844e-06
2039-03-13T22:49:25.989430    -1.32026155434786543e+08    6.52872214585299268e+07    2.94598535481908023e+07   -1.42116989327626513e+01   -2.39427149499834364e+01   -1.02349517034612720e+01    5.17035345393120780e-06   -2.55688832589692142e-06   -1.15375405215563092e-06
2039-03-14T19:05:01.750524    -1.33048909063480407e+08    6.35342014953495115e+07    2.87103168787549660e+07   -1.38331491744503854e+01   -2.41266928348237784e+01   -1.03180279611518202e+01    5.20982803993932591e-06   -2.48795725758341470e-06   -1.12427453175145165e-06
2039-03-15T15:20:37.511617    -1.34043948900148138e+08    6.17679467610703856e+07    2.79547995942389257e+07   -1.34517596691101673e+01   -2.43056249817157592e+01   -1.03989458727942665e+01    5.24822204892650024e-06   -2.41852952466228126e-06   -1.09457020825437522e-06
2039-03-16T11:36:13.272711    -1.35011070706360370e+08    5.99888265804548860e+07    2.71934597084817179e+07   -1.30676094934852181e+01   -2.44794756818160302e+01   -1.04776892630627962e+01    5.28552827699060177e-06   -2.34861928400079062e-06   -1.06464714422245103e-06
2039-03-17T07:51:49.033804    -1.35950075996623456e+08    5.81972128401500657e+07    2.64264563965214938e+07   -1.26807782418977357e+01   -2.46482102617550751e+01   -1.05542424001490431e+01    5.32173973360073550e-06   -2.27824077155596134e-06   -1.03451143838128933e-06
2039-03-18T04:07:24.794898    -1.36860772082101196e+08    5.63934799135449678e+07    2.56539499624667987e+07   -1.22913460111156088e+01   -2.48117950890916426e+01   -1.06285899982601535e+01    5.35684962905469084e-06   -2.20740829339354521e-06   -1.00416922162168079e-06
2039-03-19T00:23:00.555991    -1.37742972132550895e+08    5.45780045878028572e+07    2.48761018084761836e+07   -1.18993933862985912e+01   -2.49701975770344404e+01   -1.07007172197896523e+01    5.39085135743684450e-06   -2.13613621458633955e-06   -9.73626652034063637e-07
2039-03-19T20:38:36.317085    -1.38596495262088358e+08    5.27511659938441068e+07    2.40930744052331932e+07   -1.15050014283575948e+01   -2.51233861882731091e+01   -1.07706096770893751e+01    5.42373847493730534e-06   -2.06443894590672528e-06   -9.42889908941508810e-07
2039-03-20T16:54:12.078179    -1.39421166644396693e+08    5.09133455400536358e+07    2.33050312643034756e+07   -1.11082516630602992e+01   -2.52713304377606427e+01   -1.08382534337707543e+01    5.45550467357394192e-06   -1.99233092833689288e-06   -9.11965185942039905e-07
2039-03-21T13:12:55.908220    -1.40218831326979071e+08    4.90601472064438462e+07    2.25100862480473183e+07   -1.07081942707637978e+01   -2.54143619464167685e+01   -1.09038006645828887e+01    5.48622194156027244e-06   -1.91963947736655198e-06   -8.80778387322549142e-07
2039-03-22T09:31:39.738263    -1.40987161186246186e+08    4.71966845530076995e+07    2.17104317065387778e+07   -1.03059323006794745e+01   -2.55520638704273608e+01   -1.09670609129369332e+01    5.51580086366013517e-06   -1.84656464710129287e-06   -8.49415297820071020e-07
2039-03-23T05:50:23.568306    -1.41725998095069885e+08    4.53233483050952703e+07    2.09062353360059522e+07   -9.90154919318754878e+00   -2.56844087181815475e+01   -1.10280215208000723e+01    5.54423598935444200e-06   -1.77312128393450713e-06   -8.17882294365654672e-07
2039-03-24T02:09:07.398349    -1.42435189978788227e+08    4.34405311647648364e+07    2.00976657432984076e+07   -9.49512878152894046e+00   -2.58113700853202239e+01   -1.10866702972010085e+01    5.57152202880668602e-06   -1.69932427943151570e-06   -7.86185774902805035e-07
2039-03-24T22:27:51.228391    -1.43114590898529619e+08    4.15486277267048582e+07    1.92848924102499373e+07   -9.08675527909714731e+00   -2.59329226581660812e+01   -1.11429955198300910e+01    5.59765387815703015e-06   -1.62518857355945814e-06   -7.54332160015590494e-07
2039-03-25T18:46:35.058433    -1.43764061107261896e+08    3.96480343959450275e+07    1.84680856585679017e+07   -8.67651326506411991e+00   -2.60490422173456686e+01   -1.11969859367377538e+01    5.62262663989329697e-06   -1.55072915675695367e-06   -7.22327894009842120e-07
2039-03-26T15:05:18.888476    -1.44383467084294707e+08    3.77391493068892583e+07    1.76474166150991060e+07   -8.26448766869629914e+00   -2.61597056415204072e+01   -1.12486307680920170e+01    5.64643563830684843e-06   -1.47596107084443060e-06   -6.90179445447811445e-07
2039-03-27T11:24:02.718519    -1.44972681553954512e+08    3.58223722432200387e+07    1.68230571773290373e+07   -7.85076375272052562e+00   -2.62648909111416664e+01   -1.12979197079550495e+01    5.66907643002091146e-06   -1.40089940877150723e-06   -6.57893307134628213e-07
2039-03-28T07:42:46.548561    -1.45531583494151175e+08    3.38981045582236350e+07    1.59951799789715074e+07   -7.43542709609958408e+00   -2.63645771121450707e+01   -1.13448429260388046e+01    5.69054480961289038e-06   -1.32555931320787667e-06   -6.25475995559571608e-07
